[{"OBJECT_NAME":"VSP RF B1","OBJECT_ID":"2024-043AR","EPOCH":"2026-03-09T22:40:29.479296","MEAN_MOTION":15.26694159,"ECCENTRICITY":0.00102608,"INCLINATION":97.5446,"RA_OF_ASC_NODE":204.7052,"ARG_OF_PERICENTER":220.7435,"MEAN_ANOMALY":139.3037,"EPHEMERIS_TYPE":0,"CLASSIFICATION_TYPE":"U","NORAD_CAT_ID":59137,"ELEMENT_SET_NO":999,"REV_AT_EPOCH":11187,"BSTAR":0.00024406819,"MEAN_MOTION_DOT":6.341e-5,"MEAN_MOTION_DDOT":0},{"OBJECT_NAME":"STARLINK-32090","OBJECT_ID":"2024-086K","EPOCH":"2026-03-09T00:17:14.763552","MEAN_MOTION":15.27581318,"ECCENTRICITY":5.687e-5,"INCLINATION":42.9985,"RA_OF_ASC_NODE":67.5931,"ARG_OF_PERICENTER":296.4773,"MEAN_ANOMALY":63.602,"EPHEMERIS_TYPE":0,"CLASSIFICATION_TYPE":"U","NORAD_CAT_ID":59691,"ELEMENT_SET_NO":999,"REV_AT_EPOCH":10396,"BSTAR":3.950809e-5,"MEAN_MOTION_DOT":8.26e-6,"MEAN_MOTION_DDOT":0}]
